ORBCOMM FM20            
1 25416U 98046D   24318.78045397  .00002849  00000+0  10140-2 0  9996
2 25416  44.9924 120.7177 0001244 206.5182 153.5602 14.36277838373286
ORBCOMM FM16            
1 25417U 98046E   24318.79935608  .00003258  00000+0  11215-2 0  9990
2 25417  44.9921 114.7604 0004080 271.7149  88.3232 14.37627596373241
ORBCOMM FM14            
1 25419U 98046G   24318.79149658  .00003267  00000+0  11257-2 0  9990
2 25419  44.9941 118.1244 0002875 253.6641 106.3891 14.37584001373200
ORBCOMM FM21            
1 25475U 98053A   24318.98112508  .00002303  00000+0  82664-3 0  9996
2 25475  45.0072 207.9712 0000430 266.7193  93.3606 14.36422594366622
ORBCOMM FM22            
1 25476U 98053B   24318.66901696  .00002749  00000+0  96251-3 0  9997
2 25476  45.0067 205.8308 0002051 219.1279 140.9420 14.37189192366250
ORBCOMM FM23            
1 25477U 98053C   24318.79388734  .00002294  00000+0  82225-3 0  9995
2 25477  45.0073 211.2079 0001246 225.9374 134.1371 14.36506998366414
