<?xml version="1.0" encoding="UTF-8"?>
<ndm xmlns:xsi="http://www.w3.org/2001/XMLSchema-instance" xsi:noNamespaceSchemaLocation="https://sanaregistry.org/r/ndmxml_unqualified/ndmxml-2.0.0-master-2.0.xsd">
<omm id="CCSDS_OMM_VERS" version="2.0">
<header><CREATION_DATE/><ORIGINATOR/></header><body><segment><metadata><OBJECT_NAME>ORBCOMM FM20</OBJECT_NAME><OBJECT_ID>1998-046D</OBJECT_ID><CENTER_NAME>EARTH</CENTER_NAME><REF_FRAME>TEME</REF_FRAME><TIME_SYSTEM>UTC</TIME_SYSTEM><MEAN_ELEMENT_THEORY>SGP4</MEAN_ELEMENT_THEORY></metadata><data><meanElements><EPOCH>2024-11-13T18:43:51.223008</EPOCH><MEAN_MOTION>14.36277838</MEAN_MOTION><ECCENTRICITY>.0001244</ECCENTRICITY><INCLINATION>44.9924</INCLINATION><RA_OF_ASC_NODE>120.7177</RA_OF_ASC_NODE><ARG_OF_PERICENTER>206.5182</ARG_OF_PERICENTER><MEAN_ANOMALY>153.5602</MEAN_ANOMALY></meanElements><tleParameters><EPHEMERIS_TYPE>0</EPHEMERIS_TYPE><CLASSIFICATION_TYPE>U</CLASSIFICATION_TYPE><NORAD_CAT_ID>25416</NORAD_CAT_ID><ELEMENT_SET_NO>999</ELEMENT_SET_NO><REV_AT_EPOCH>37328</REV_AT_EPOCH><BSTAR>.1014E-2</BSTAR><MEAN_MOTION_DOT>.2849E-4</MEAN_MOTION_DOT><MEAN_MOTION_DDOT>0</MEAN_MOTION_DDOT></tleParameters></data></segment></body></omm>
<omm id="CCSDS_OMM_VERS" version="2.0">
<header><CREATION_DATE/><ORIGINATOR/></header><body><segment><metadata><OBJECT_NAME>ORBCOMM FM16</OBJECT_NAME><OBJECT_ID>1998-046E</OBJECT_ID><CENTER_NAME>EARTH</CENTER_NAME><REF_FRAME>TEME</REF_FRAME><TIME_SYSTEM>UTC</TIME_SYSTEM><MEAN_ELEMENT_THEORY>SGP4</MEAN_ELEMENT_THEORY></metadata><data><meanElements><EPOCH>2024-11-13T19:11:04.365312</EPOCH><MEAN_MOTION>14.37627596</MEAN_MOTION><ECCENTRICITY>.000408</ECCENTRICITY><INCLINATION>44.9921</INCLINATION><RA_OF_ASC_NODE>114.7604</RA_OF_ASC_NODE><ARG_OF_PERICENTER>271.7149</ARG_OF_PERICENTER><MEAN_ANOMALY>88.3232</MEAN_ANOMALY></meanElements><tleParameters><EPHEMERIS_TYPE>0</EPHEMERIS_TYPE><CLASSIFICATION_TYPE>U</CLASSIFICATION_TYPE><NORAD_CAT_ID>25417</NORAD_CAT_ID><ELEMENT_SET_NO>999</ELEMENT_SET_NO><REV_AT_EPOCH>37324</REV_AT_EPOCH><BSTAR>.11215E-2</BSTAR><MEAN_MOTION_DOT>.3258E-4</MEAN_MOTION_DOT><MEAN_MOTION_DDOT>0</MEAN_MOTION_DDOT></tleParameters></data></segment></body></omm>
<omm id="CCSDS_OMM_VERS" version="2.0">
<header><CREATION_DATE/><ORIGINATOR/></header><body><segment><metadata><OBJECT_NAME>ORBCOMM FM14</OBJECT_NAME><OBJECT_ID>1998-046G</OBJECT_ID><CENTER_NAME>EARTH</CENTER_NAME><REF_FRAME>TEME</REF_FRAME><TIME_SYSTEM>UTC</TIME_SYSTEM><MEAN_ELEMENT_THEORY>SGP4</MEAN_ELEMENT_THEORY></metadata><data><meanElements><EPOCH>2024-11-13T18:59:45.304512</EPOCH><MEAN_MOTION>14.37584001</MEAN_MOTION><ECCENTRICITY>.0002875</ECCENTRICITY><INCLINATION>44.9941</INCLINATION><RA_OF_ASC_NODE>118.1244</RA_OF_ASC_NODE><ARG_OF_PERICENTER>253.6641</ARG_OF_PERICENTER><MEAN_ANOMALY>106.3891</MEAN_ANOMALY></meanElements><tleParameters><EPHEMERIS_TYPE>0</EPHEMERIS_TYPE><CLASSIFICATION_TYPE>U</CLASSIFICATION_TYPE><NORAD_CAT_ID>25419</NORAD_CAT_ID><ELEMENT_SET_NO>999</ELEMENT_SET_NO><REV_AT_EPOCH>37320</REV_AT_EPOCH><BSTAR>.11257E-2</BSTAR><MEAN_MOTION_DOT>.3267E-4</MEAN_MOTION_DOT><MEAN_MOTION_DDOT>0</MEAN_MOTION_DDOT></tleParameters></data></segment></body></omm>
<omm id="CCSDS_OMM_VERS" version="2.0">
<header><CREATION_DATE/><ORIGINATOR/></header><body><segment><metadata><OBJECT_NAME>ORBCOMM FM21</OBJECT_NAME><OBJECT_ID>1998-053A</OBJECT_ID><CENTER_NAME>EARTH</CENTER_NAME><REF_FRAME>TEME</REF_FRAME><TIME_SYSTEM>UTC</TIME_SYSTEM><MEAN_ELEMENT_THEORY>SGP4</MEAN_ELEMENT_THEORY></metadata><data><meanElements><EPOCH>2024-11-13T23:32:49.206912</EPOCH><MEAN_MOTION>14.36422594</MEAN_MOTION><ECCENTRICITY>.000043</ECCENTRICITY><INCLINATION>45.0072</INCLINATION><RA_OF_ASC_NODE>207.9712</RA_OF_ASC_NODE><ARG_OF_PERICENTER>266.7193</ARG_OF_PERICENTER><MEAN_ANOMALY>93.3606</MEAN_ANOMALY></meanElements><tleParameters><EPHEMERIS_TYPE>0</EPHEMERIS_TYPE><CLASSIFICATION_TYPE>U</CLASSIFICATION_TYPE><NORAD_CAT_ID>25475</NORAD_CAT_ID><ELEMENT_SET_NO>999</ELEMENT_SET_NO><REV_AT_EPOCH>36662</REV_AT_EPOCH><BSTAR>.82664E-3</BSTAR><MEAN_MOTION_DOT>.2303E-4</MEAN_MOTION_DOT><MEAN_MOTION_DDOT>0</MEAN_MOTION_DDOT></tleParameters></data></segment></body></omm>
<omm id="CCSDS_OMM_VERS" version="2.0">
<header><CREATION_DATE/><ORIGINATOR/></header><body><segment><metadata><OBJECT_NAME>ORBCOMM FM22</OBJECT_NAME><OBJECT_ID>1998-053B</OBJECT_ID><CENTER_NAME>EARTH</CENTER_NAME><REF_FRAME>TEME</REF_FRAME><TIME_SYSTEM>UTC</TIME_SYSTEM><MEAN_ELEMENT_THEORY>SGP4</MEAN_ELEMENT_THEORY></metadata><data><meanElements><EPOCH>2024-11-13T16:03:23.065344</EPOCH><MEAN_MOTION>14.37189192</MEAN_MOTION><ECCENTRICITY>.0002051</ECCENTRICITY><INCLINATION>45.0067</INCLINATION><RA_OF_ASC_NODE>205.8308</RA_OF_ASC_NODE><ARG_OF_PERICENTER>219.1279</ARG_OF_PERICENTER><MEAN_ANOMALY>140.9420</MEAN_ANOMALY></meanElements><tleParameters><EPHEMERIS_TYPE>0</EPHEMERIS_TYPE><CLASSIFICATION_TYPE>U</CLASSIFICATION_TYPE><NORAD_CAT_ID>25476</NORAD_CAT_ID><ELEMENT_SET_NO>999</ELEMENT_SET_NO><REV_AT_EPOCH>36625</REV_AT_EPOCH><BSTAR>.96251E-3</BSTAR><MEAN_MOTION_DOT>.2749E-4</MEAN_MOTION_DOT><MEAN_MOTION_DDOT>0</MEAN_MOTION_DDOT></tleParameters></data></segment></body></omm>
<omm id="CCSDS_OMM_VERS" version="2.0">
<header><CREATION_DATE/><ORIGINATOR/></header><body><segment><metadata><OBJECT_NAME>ORBCOMM FM23</OBJECT_NAME><OBJECT_ID>1998-053C</OBJECT_ID><CENTER_NAME>EARTH</CENTER_NAME><REF_FRAME>TEME</REF_FRAME><TIME_SYSTEM>UTC</TIME_SYSTEM><MEAN_ELEMENT_THEORY>SGP4</MEAN_ELEMENT_THEORY></metadata><data><meanElements><EPOCH>2024-11-13T19:03:11.866176</EPOCH><MEAN_MOTION>14.36506998</MEAN_MOTION><ECCENTRICITY>.0001246</ECCENTRICITY><INCLINATION>45.0073</INCLINATION><RA_OF_ASC_NODE>211.2079</RA_OF_ASC_NODE><ARG_OF_PERICENTER>225.9374</ARG_OF_PERICENTER><MEAN_ANOMALY>134.1371</MEAN_ANOMALY></meanElements><tleParameters><EPHEMERIS_TYPE>0</EPHEMERIS_TYPE><CLASSIFICATION_TYPE>U</CLASSIFICATION_TYPE><NORAD_CAT_ID>25477</NORAD_CAT_ID><ELEMENT_SET_NO>999</ELEMENT_SET_NO><REV_AT_EPOCH>36641</REV_AT_EPOCH><BSTAR>.82225E-3</BSTAR><MEAN_MOTION_DOT>.2294E-4</MEAN_MOTION_DOT><MEAN_MOTION_DDOT>0</MEAN_MOTION_DDOT></tleParameters></data></segment></body></omm>

</ndm>
